{
    "links": {
        "self": "http://www.neowsapp.com/rest/v1/neo/3660061?api_key=iIulBulltgU6a56xZRHN4H3l9WmuAYTsLGpBGhQ2"
    },
    "id": "3660061",
    "neo_reference_id": "3660061",
    "name": "(2014 BT43)",
    "designation": "2014 BT43",
    "nasa_jpl_url": "http://ssd.jpl.nasa.gov/sbdb.cgi?sstr=3660061",
    "absolute_magnitude_h": 25.7,
    "estimated_diameter": {
        "kilometers": {
            "estimated_diameter_min": 0.0192555078,
            "estimated_diameter_max": 0.0430566244
        },
        "meters": {
            "estimated_diameter_min": 19.2555078188,
            "estimated_diameter_max": 43.0566244241
        },
        "miles": {
            "estimated_diameter_min": 0.0119648141,
            "estimated_diameter_max": 0.0267541378
        },
        "feet": {
            "estimated_diameter_min": 63.1742402722,
            "estimated_diameter_max": 141.2618956756
        }
    },
    "is_potentially_hazardous_asteroid": false,
    "close_approach_data": [
        {
            "close_approach_date": "2014-02-11",
            "close_approach_date_full": "2014-Feb-11 14:49",
            "epoch_date_close_approach": 1392130140000,
            "relative_velocity": {
                "kilometers_per_second": "11.2796920246",
                "kilometers_per_hour": "40606.8912887303",
                "miles_per_hour": "25231.5430899335"
            },
            "miss_distance": {
                "astronomical": "0.0252436016",
                "lunar": "9.8197610224",
                "kilometers": "3776389.030488592",
                "miles": "2346539.3330708896"
            },
            "orbiting_body": "Earth"
        }
    ],
    "orbital_data": {
        "orbit_id": "10",
        "orbit_determination_date": "2017-04-06 08:42:41",
        "first_observation_date": "2014-01-28",
        "last_observation_date": "2014-02-06",
        "data_arc_in_days": 9,
        "observations_used": 33,
        "orbit_uncertainty": "8",
        "minimum_orbit_intersection": ".0252049",
        "jupiter_tisserand_invariant": "3.881",
        "epoch_osculation": "2456688.5",
        "eccentricity": ".5168766769682382",
        "semi_major_axis": "1.812103535890728",
        "inclination": "2.336999608408266",
        "ascending_node_longitude": "283.8793239868239",
        "orbital_period": "890.9902231741303",
        "perihelion_distance": ".8754694819371341",
        "perihelion_argument": "267.0894760676346",
        "aphelion_distance": "2.748737589844323",
        "perihelion_time": "2456735.651168183135",
        "mean_anomaly": "340.9488139101486",
        "mean_motion": ".4040448375712912",
        "equinox": "J2000",
        "orbit_class": {
            "orbit_class_type": "APO",
            "orbit_class_description": "Near-Earth asteroid orbits which cross the Earth’s orbit similar to that of 1862 Apollo",
            "orbit_class_range": "a (semi-major axis) > 1.0 AU; q (perihelion) < 1.017 AU"
        }
    },
    "is_sentry_object": false
}